******** Week 961 almanac for PRN-18 ********
ID:                         18
Health:                     000
Eccentricity:               0.1840639114E-001
Time of Applicability(s):  147456.0000
Orbital Inclination(rad):   0.9266526271
Rate of Right Ascen(r/s):  -0.8171768958E-008
SQRT(A)  (m 1/2):           5153.593750
Right Ascen at Week(rad):   0.4958948679E+000
Argument of Perigee(rad):  -1.758300761
Mean Anom(rad):            -0.1615066054E+001
Af0(s):                     0.6332397461E-003
Af1(s/s):                   0.0000000000E+000
week:                        961

******** Week 961 almanac for PRN-19 ********
ID:                         19
Health:                     000
Eccentricity:               0.9723663330E-002
Time of Applicability(s):  147456.0000
Orbital Inclination(rad):   0.9790716268
Rate of Right Ascen(r/s):  -0.7851755629E-008
SQRT(A)  (m 1/2):           5153.651367
Right Ascen at Week(rad):  -0.1448529145E+001
Argument of Perigee(rad):   1.114995432
Mean Anom(rad):            -0.1872239281E+000
Af0(s):                    -0.4625320435E-003
Af1(s/s):                   0.3637978807E-011
week:                        961

******** Week 961 almanac for PRN-20 ********
ID:                         20
Health:                     000
Eccentricity:               0.4535675049E-002
Time of Applicability(s):  147456.0000
Orbital Inclination(rad):   0.9281087104
Rate of Right Ascen(r/s):  -0.8194627053E-008
SQRT(A)  (m 1/2):           5153.720215
Right Ascen at Week(rad):   0.4449064850E+000
Argument of Perigee(rad):   1.774644622
Mean Anom(rad):             0.2018847173E+001
Af0(s):                     0.4987716675E-003
Af1(s/s):                   0.0000000000E+000
week:                        961

******** Week 961 almanac for PRN-21 ********
ID:                         21
Health:                     000
Eccentricity:               0.2432250977E-001
Time of Applicability(s):  147456.0000
Orbital Inclination(rad):   0.9426096226
Rate of Right Ascen(r/s):  -0.8274630386E-008
SQRT(A)  (m 1/2):           5153.718750
Right Ascen at Week(rad):  -0.5428647903E+000
Argument of Perigee(rad):  -1.604184752
Mean Anom(rad):            -0.7393412891E+000
Af0(s):                    -0.4386901855E-003
Af1(s/s):                   0.3637978807E-011
week:                        961

******** Week 961 almanac for PRN-22 ********
ID:                         22
Health:                     000
Eccentricity:               0.7218360901E-002
Time of Applicability(s):  147456.0000
Orbital Inclination(rad):   0.9247890801
Rate of Right Ascen(r/s):  -0.8206056101E-008
SQRT(A)  (m 1/2):           5153.553711
Right Ascen at Week(rad):   0.4952967801E+000
Argument of Perigee(rad):  -1.626539451
Mean Anom(rad):             0.2498956195E+001
Af0(s):                    -0.2660751343E-003
Af1(s/s):                  -0.1455191523E-010
week:                        961

******** Week 961 almanac for PRN-23 ********
ID:                         23
Health:                     000
Eccentricity:               0.1192331314E-001
Time of Applicability(s):  147456.0000
Orbital Inclination(rad):   0.9433706208
Rate of Right Ascen(r/s):  -0.8023191341E-008
SQRT(A)  (m 1/2):           5153.553223
Right Ascen at Week(rad):   0.1584436247E+001
Argument of Perigee(rad):  -2.403475254
Mean Anom(rad):             0.1806579211E+001
Af0(s):                    -0.2193450928E-003
Af1(s/s):                   0.0000000000E+000
week:                        961

******** Week 961 almanac for PRN-24 ********
ID:                         24
Health:                     000
Eccentricity:               0.6710529327E-002
Time of Applicability(s):  147456.0000
Orbital Inclination(rad):   0.9428972439
Rate of Right Ascen(r/s):  -0.8274630386E-008
SQRT(A)  (m 1/2):           5153.598145
Right Ascen at Week(rad):   0.2605631151E+001
Argument of Perigee(rad):   0.513132303
Mean Anom(rad):             0.1231118078E+001
Af0(s):                    -0.4482269287E-004
Af1(s/s):                   0.0000000000E+000
week:                        961

******** Week 961 almanac for PRN-25 ********
ID:                         25
Health:                     000
Eccentricity:               0.7033824921E-002
Time of Applicability(s):  147456.0000
Orbital Inclination(rad):   0.9756081858
Rate of Right Ascen(r/s):  -0.7760323249E-008
SQRT(A)  (m 1/2):           5153.652344
Right Ascen at Week(rad):  -0.2588933381E+001
Argument of Perigee(rad):   0.803638903
Mean Anom(rad):            -0.7284053093E+000
Af0(s):                    -0.5264282227E-003
Af1(s/s):                  -0.7275957614E-011
week:                        961

******** Week 961 almanac for PRN-26 ********
ID:                         26
Health:                     000
Eccentricity:               0.2589225769E-002
Time of Applicability(s):  147456.0000
Orbital Inclination(rad):   0.9572303769
Rate of Right Ascen(r/s):  -0.7931758961E-008
SQRT(A)  (m 1/2):           5153.549805
Right Ascen at Week(rad):  -0.2608628706E+001
Argument of Perigee(rad):  -0.022963273
Mean Anom(rad):            -0.1212743639E+001
Af0(s):                    -0.2775192261E-003
Af1(s/s):                   0.1455191523E-010
week:                        961

******** Week 961 almanac for PRN-27 ********
ID:                         27
Health:                     000
Eccentricity:               0.5367755890E-002
Time of Applicability(s):  147456.0000
Orbital Inclination(rad):   0.9764410895
Rate of Right Ascen(r/s):  -0.7851755629E-008
SQRT(A)  (m 1/2):           5153.632812
Right Ascen at Week(rad):  -0.1549192889E+001
Argument of Perigee(rad):   0.351655358
Mean Anom(rad):            -0.3054745972E+001
Af0(s):                     0.3643035889E-003
Af1(s/s):                   0.3637978807E-011
week:                        961

******** Week 961 almanac for PRN-28 ********
ID:                         28
Health:                     000
Eccentricity:               0.1985168457E-001
Time of Applicability(s):  147456.0000
Orbital Inclination(rad):   0.9871310181
Rate of Right Ascen(r/s):  -0.7611745631E-008
SQRT(A)  (m 1/2):           5153.630371
Right Ascen at Week(rad):  -0.2507509561E+001
Argument of Perigee(rad):  -1.530493378
Mean Anom(rad):            -0.2237738292E+001
Af0(s):                     0.6818771362E-003
Af1(s/s):                   0.3637978807E-011
week:                        961

******** Week 961 almanac for PRN-29 ********
ID:                         29
Health:                     000
Eccentricity:               0.4577636719E-003
Time of Applicability(s):  147456.0000
Orbital Inclination(rad):   0.9828646340
Rate of Right Ascen(r/s):  -0.7783181344E-008
SQRT(A)  (m 1/2):           5153.703125
Right Ascen at Week(rad):  -0.1485387377E+001
Argument of Perigee(rad):   0.744941667
Mean Anom(rad):            -0.1701468945E+001
Af0(s):                     0.5073547363E-003
Af1(s/s):                  -0.7275957614E-011
week:                        961

******** Week 961 almanac for PRN-30 ********
ID:                         30
Health:                     000
Eccentricity:               0.3047466278E-002
Time of Applicability(s):  147456.0000
Orbital Inclination(rad):   0.9455517498
Rate of Right Ascen(r/s):  -0.8251772291E-008
SQRT(A)  (m 1/2):           5153.518555
Right Ascen at Week(rad):   0.2698605517E+001
Argument of Perigee(rad):  -3.107187442
Mean Anom(rad):             0.4357995976E+000
Af0(s):                     0.1106262207E-003
Af1(s/s):                  -0.3637978807E-011
week:                        961

******** Week 961 almanac for PRN-31 ********
ID:                         31
Health:                     000
Eccentricity:               0.8832454681E-002
Time of Applicability(s):  147456.0000
Orbital Inclination(rad):   0.9645826989
Rate of Right Ascen(r/s):  -0.8057478483E-008
SQRT(A)  (m 1/2):           5153.539551
Right Ascen at Week(rad):   0.2675163999E+001
Argument of Perigee(rad):  -0.168370495
Mean Anom(rad):             0.8823011080E-001
Af0(s):                     0.1468658447E-003
Af1(s/s):                  -0.3637978807E-011
week:                        961

******** Week 961 almanac for PRN-32 ********
ID:                         32
Health:                     000
Eccentricity:               0.1610279083E-002
Time of Applicability(s):  147456.0000
Orbital Inclination(rad):   0.9569487477
Rate of Right Ascen(r/s):  -0.7908900866E-008
SQRT(A)  (m 1/2):           5153.574707
Right Ascen at Week(rad):   0.1589254280E+001
Argument of Perigee(rad):  -2.702606001
Mean Anom(rad):            -0.2315781811E+001
Af0(s):                    -0.5331039429E-003
Af1(s/s):                   0.0000000000E+000
week:                        961

